OBJECT_NAME,OBJECT_ID,EPOCH,MEAN_MOTION,ECCENTRICITY,INCLINATION,RA_OF_ASC_NODE,ARG_OF_PERICENTER,MEAN_ANOMALY,EPHEMERIS_TYPE,CLASSIFICATION_TYPE,NORAD_CAT_ID,ELEMENT_SET_NO,REV_AT_EPOCH,BSTAR,MEAN_MOTION_DOT,MEAN_MOTION_DDOT
IONOSFERA-M 4,2025-155B,2026-06-09T11:13:13.799712,14.21487335,.0000778,98.6020,122.4846,117.6360,242.4897,0,U,64877,999,4530,.40536E-4,.46E-6,0
MICROCARB,2025-156A,2026-06-09T11:17:02.262048,14.72317733,.0015104,97.9831,237.7451,299.2263,60.7434,0,U,64899,999,4683,.81742E-4,.468E-5,0
CO3D 3,2025-156B,2026-06-09T11:40:22.213344,15.20199107,.0001131,97.4327,239.2902,136.0049,224.1277,0,U,64900,999,4836,.20642E-3,.4403E-4,0
CO3D 4,2025-156C,2026-06-08T23:02:18.632832,15.20199351,.0000729,97.4332,238.7713,27.5039,332.6234,0,U,64901,999,4828,.16169789E-4,.283E-5,0
CO3D 2,2025-156D,2026-06-09T06:08:12.930144,15.20211240,.0001421,97.4326,238.9617,115.1287,245.0096,0,U,64902,999,4832,.17173E-3,.3653E-4,0
CO3D 1,2025-156E,2026-06-09T10:52:47.252352,15.20200385,.0001194,97.4327,239.1568,116.0661,244.0698,0,U,64903,999,4835,.18286E-3,.3893E-4,0
PRSC-S1,2025-164A,2026-06-09T12:10:06.439872,15.06386805,.0007508,41.1314,331.0647,298.2751,61.7305,0,U,65055,999,4727,.30264E-3,.4363E-4,0
SENTINEL-6B,2025-264A,2026-06-09T08:33:05.551200,12.80929844,.0008045,66.0386,151.4434,269.2573,90.7520,0,U,66514,999,2616,.15724E-3,-.25E-6,0
CAS500-3,2025-274F,2026-06-09T08:22:45.695136,14.88302041,.0006353,97.7447,88.5787,130.7263,229.4507,0,U,66655,999,2898,.13144E-3,.1162E-4,0
CSG-3,2026-001A,2026-06-09T12:04:03.566784,14.82148421,.0001308,97.8886,344.2160,92.0792,268.0571,0,U,67304,999,2332,.44481E-4,.302E-5,0
PRSC-E03,2026-092A,2026-06-09T08:49:23.785824,15.06630198,.0004977,37.9995,135.7895,309.4836,50.5485,0,U,68835,999,677,.14461E-3,.2076E-4,0
CAS500-2,2026-100AK,2026-06-09T04:32:46.460832,15.20495018,.0011319,97.4084,58.1822,59.4631,300.7720,0,U,69013,999,559,.27296E-3,.5906E-4,0
