IONOSFERA-M 4           
1 64877U 25155B   26160.46752083  .00000046  00000+0  40536-4 0  9991
2 64877  98.6020 122.4846 0000778 117.6360 242.4897 14.21487335 45308
MICROCARB               
1 64899U 25156A   26160.47016507  .00000468  00000+0  81742-4 0  9993
2 64899  97.9831 237.7451 0015104 299.2263  60.7434 14.72317733 46831
CO3D 3                  
1 64900U 25156B   26160.48636821  .00004403  00000+0  20642-3 0  9998
2 64900  97.4327 239.2902 0001131 136.0049 224.1277 15.20199107 48360
CO3D 4                  
1 64901U 25156C   26159.95993788  .00000283  00000+0  16170-4 0  9991
2 64901  97.4332 238.7713 0000729  27.5039 332.6234 15.20199351 48286
CO3D 2                  
1 64902U 25156D   26160.25570521  .00003653  00000+0  17173-3 0  9990
2 64902  97.4326 238.9617 0001421 115.1287 245.0096 15.20211240 48324
CO3D 1                  
1 64903U 25156E   26160.45332468  .00003893  00000+0  18286-3 0  9991
2 64903  97.4327 239.1568 0001194 116.0661 244.0698 15.20200385 48355
PRSC-S1                 
1 65055U 25164A   26160.50701898  .00004363  00000+0  30264-3 0  9995
2 65055  41.1314 331.0647 0007508 298.2751  61.7305 15.06386805 47279
SENTINEL-6B             
1 66514U 25264A   26160.35631425 -.00000025  00000+0  15724-3 0  9994
2 66514  66.0386 151.4434 0008045 269.2573  90.7520 12.80929844 26161
CAS500-3                
1 66655U 25274F   26160.34913999  .00001162  00000+0  13144-3 0  9995
2 66655  97.7447  88.5787 0006353 130.7263 229.4507 14.88302041 28987
CSG-3                   
1 67304U 26001A   26160.50281906  .00000302  00000+0  44481-4 0  9994
2 67304  97.8886 344.2160 0001308  92.0792 268.0571 14.82148421 23323
PRSC-E03                
1 68835U 26092A   26160.36763641  .00002076  00000+0  14461-3 0  9993
2 68835  37.9995 135.7895 0004977 309.4836  50.5485 15.06630198  6778
CAS500-2                
1 69013U 26100AK  26160.18942663  .00005906  00000+0  27296-3 0  9990
2 69013  97.4084  58.1822 0011319  59.4631 300.7720 15.20495018  5595
